{"type": "FeatureCollection", "features": [ {"type": "Feature", "properties": {"norad_id": 33867, "name": "IRIDIUM 33 DEB", "group": "iridium-33-debris", "lat": -56.06782082700316, "lon": 177.5173632306655, "alt_km": 399.2362953753327, "timestamp": "2025-12-08T21:31:05.051506+00:00", "meta": {"OBJECT_NAME": "IRIDIUM 33 DEB", "OBJECT_ID": "1997-051AL", "EPOCH": "2025-12-08T12:48:58.472640", "MEAN_MOTION": 15.60555774, "ECCENTRICITY": 0.0012895, "INCLINATION": 86.363, "RA_OF_ASC_NODE": 352.2785, "ARG_OF_PERICENTER": 90.3716, "MEAN_ANOMALY": 269.9027, "EPHEMERIS_TYPE": 0, "CLASSIFICATION_TYPE": "U", "NORAD_CAT_ID": 33867, "ELEMENT_SET_NO": 999, "REV_AT_EPOCH": 89445, "BSTAR": 0.0075620123, "MEAN_MOTION_DOT": 0.00677686, "MEAN_MOTION_DDOT": 0}, "tle": {"line1": "1 33867U 97051AL  25342.53401010  .00677686  00000+0  75620-2 0  9990", "line2": "2 33867  86.3630 352.2785 0012895  90.3716 269.9027 15.60555774894458"}}, "geometry": {"type": "Point", "coordinates": [177.5173632306655, -56.06782082700316]}}, {"type": "Feature", "properties": {"norad_id": 33870, "name": "IRIDIUM 33 DEB", "group": "iridium-33-debris", "lat": 44.623058245845854, "lon": -123.67898478693698, "alt_km": 727.1625737096738, "timestamp": "2025-12-08T21:31:05.051517+00:00", "meta": {"OBJECT_NAME": "IRIDIUM 33 DEB", "OBJECT_ID": "1997-051AP", "EPOCH": "2025-12-08T04:35:04.159104", "MEAN_MOTION": 14.45812743, "ECCENTRICITY": 0.00209812, "INCLINATION": 86.3749, "RA_OF_ASC_NODE": 60.2105, "ARG_OF_PERICENTER": 193.1042, "MEAN_ANOMALY": 232.1982, "EPHEMERIS_TYPE": 0, "CLASSIFICATION_TYPE": "U", "NORAD_CAT_ID": 33870, "ELEMENT_SET_NO": 999, "REV_AT_EPOCH": 88071, "BSTAR": 0.0011351553, "MEAN_MOTION_DOT": 4.056e-05, "MEAN_MOTION_DDOT": 0}, "tle": {"line1": "1 33870U 97051AP  25342.19102036  .00004056  00000+0  11352-2 0  9999", "line2": "2 33870  86.3749  60.2105 0020981 193.1042 232.1982 14.45812743880714"}}, "geometry": {"type": "Point", "coordinates": [-123.67898478693698, 44.623058245845854]}}, {"type": "Feature", "properties": {"norad_id": 33881, "name": "IRIDIUM 33 DEB", "group": "iridium-33-debris", "lat": -36.43352279116611, "lon": -68.91436157509412, "alt_km": 673.064055071527, "timestamp": "2025-12-08T21:31:05.051527+00:00", "meta": {"OBJECT_NAME": "IRIDIUM 33 DEB", "OBJECT_ID": "1997-051BA", "EPOCH": "2025-12-08T15:38:57.944256", "MEAN_MOTION": 14.56454427, "ECCENTRICITY": 0.00614139, "INCLINATION": 86.387, "RA_OF_ASC_NODE": 108.5186, "ARG_OF_PERICENTER": 187.9135, "MEAN_ANOMALY": 186.8708, "EPHEMERIS_TYPE": 0, "CLASSIFICATION_TYPE": "U", "NORAD_CAT_ID": 33881, "ELEMENT_SET_NO": 999, "REV_AT_EPOCH": 87441, "BSTAR": 0.002883331, "MEAN_MOTION_DOT": 0.00013174, "MEAN_MOTION_DDOT": 0}, "tle": {"line1": "1 33881U 97051BA  25342.65205954  .00013174  00000+0  28833-2 0  9998", "line2": "2 33881  86.3870 108.5186 0061413 187.9135 186.8708 14.56454427874419"}}, "geometry": {"type": "Point", "coordinates": [-68.91436157509412, -36.43352279116611]}}, {"type": "Feature", "properties": {"norad_id": 33884, "name": "IRIDIUM 33 DEB", "group": "iridium-33-debris", "lat": -54.47886192283792, "lon": -163.3437124241694, "alt_km": 646.646363463984, "timestamp": "2025-12-08T21:31:05.051538+00:00", "meta": {"OBJECT_NAME": "IRIDIUM 33 DEB", "OBJECT_ID": "1997-051BD", "EPOCH": "2025-12-08T14:31:15.449952", "MEAN_MOTION": 14.77305834, "ECCENTRICITY": 0.00101346, "INCLINATION": 86.3691, "RA_OF_ASC_NODE": 11.6845, "ARG_OF_PERICENTER": 339.4756, "MEAN_ANOMALY": 145.6855, "EPHEMERIS_TYPE": 0, "CLASSIFICATION_TYPE": "U", "NORAD_CAT_ID": 33884, "ELEMENT_SET_NO": 999, "REV_AT_EPOCH": 88786, "BSTAR": 0.0017784061, "MEAN_MOTION_DOT": 0.00012665, "MEAN_MOTION_DDOT": 0}, "tle": {"line1": "1 33884U 97051BD  25342.60503993  .00012665  00000+0  17784-2 0  9997", "line2": "2 33884  86.3691  11.6845 0010134 339.4756 145.6855 14.77305834887865"}}, "geometry": {"type": "Point", "coordinates": [-163.3437124241694, -54.47886192283792]}}, {"type": "Feature", "properties": {"norad_id": 33886, "name": "IRIDIUM 33 DEB", "group": "iridium-33-debris", "lat": 11.22328469974287, "lon": 69.56538632644738, "alt_km": 776.6842336019845, "timestamp": "2025-12-08T21:31:05.051549+00:00", "meta": {"OBJECT_NAME": "IRIDIUM 33 DEB", "OBJECT_ID": "1997-051BF", "EPOCH": "2025-12-08T15:19:54.741792", "MEAN_MOTION": 14.36045136, "ECCENTRICITY": 0.00121044, "INCLINATION": 86.383, "RA_OF_ASC_NODE": 68.9547, "ARG_OF_PERICENTER": 257.4899, "MEAN_ANOMALY": 222.0395, "EPHEMERIS_TYPE": 0, "CLASSIFICATION_TYPE": "U", "NORAD_CAT_ID": 33886, "ELEMENT_SET_NO": 999, "REV_AT_EPOCH": 87993, "BSTAR": 0.00040192881, "MEAN_MOTION_DOT": 1.188e-05, "MEAN_MOTION_DDOT": 0}, "tle": {"line1": "1 33886U 97051BF  25342.63882803  .00001188  00000+0  40193-3 0  9991", "line2": "2 33886  86.3830  68.9547 0012104 257.4899 222.0395 14.36045136879931"}}, "geometry": {"type": "Point", "coordinates": [69.56538632644738, 11.22328469974287]}}, {"type": "Feature", "properties": {"norad_id": 33887, "name": "IRIDIUM 33 DEB", "group": "iridium-33-debris", "lat": -68.38988325192429, "lon": -4.340473998103231, "alt_km": 773.0172285184462, "timestamp": "2025-12-08T21:31:05.051559+00:00", "meta": {"OBJECT_NAME": "IRIDIUM 33 DEB", "OBJECT_ID": "1997-051BG", "EPOCH": "2025-12-08T12:25:25.149216", "MEAN_MOTION": 14.37215851, "ECCENTRICITY": 0.00041571, "INCLINATION": 86.3048, "RA_OF_ASC_NODE": 5.2119, "ARG_OF_PERICENTER": 246.101, "MEAN_ANOMALY": 245.8633, "EPHEMERIS_TYPE": 0, "CLASSIFICATION_TYPE": "U", "NORAD_CAT_ID": 33887, "ELEMENT_SET_NO": 999, "REV_AT_EPOCH": 88104, "BSTAR": 0.00027289302, "MEAN_MOTION_DOT": 8.32e-06, "MEAN_MOTION_DDOT": 0}, "tle": {"line1": "1 33887U 97051BG  25342.51765219  .00000832  00000+0  27289-3 0  9996", "line2": "2 33887  86.3048   5.2119 0004157 246.1010 245.8633 14.37215851881048"}}, "geometry": {"type": "Point", "coordinates": [-4.340473998103231, -68.38988325192429]}}, {"type": "Feature", "properties": {"norad_id": 33953, "name": "IRIDIUM 33 DEB", "group": "iridium-33-debris", "lat": -76.78433075755402, "lon": -108.93177101585525, "alt_km": 726.3591859892667, "timestamp": "2025-12-08T21:31:05.051570+00:00", "meta": {"OBJECT_NAME": "IRIDIUM 33 DEB", "OBJECT_ID": "1997-051BN", "EPOCH": "2025-12-08T15:57:49.132800", "MEAN_MOTION": 14.55261918, "ECCENTRICITY": 0.00184777, "INCLINATION": 86.3841, "RA_OF_ASC_NODE": 55.5477, "ARG_OF_PERICENTER": 115.1859, "MEAN_ANOMALY": 10.2465, "EPHEMERIS_TYPE": 0, "CLASSIFICATION_TYPE": "U", "NORAD_CAT_ID": 33953, "ELEMENT_SET_NO": 999, "REV_AT_EPOCH": 88244, "BSTAR": 0.0018443467, "MEAN_MOTION_DOT": 8.026e-05, "MEAN_MOTION_DDOT": 0}, "tle": {"line1": "1 33953U 97051BN  25342.66515200  .00008026  00000+0  18443-2 0  9993", "line2": "2 33953  86.3841  55.5477 0018477 115.1859  10.2465 14.55261918882441"}}, "geometry": {"type": "Point", "coordinates": [-108.93177101585525, -76.78433075755402]}}, {"type": "Feature", "properties": {"norad_id": 33960, "name": "IRIDIUM 33 DEB", "group": "iridium-33-debris", "lat": 10.380602048830815, "lon": -67.98667908316897, "alt_km": 612.8371261734237, "timestamp": "2025-12-08T21:31:05.051581+00:00", "meta": {"OBJECT_NAME": "IRIDIUM 33 DEB", "OBJECT_ID": "1997-051BV", "EPOCH": "2025-12-08T09:06:17.165376", "MEAN_MOTION": 14.84831157, "ECCENTRICITY": 0.00073038, "INCLINATION": 86.2539, "RA_OF_ASC_NODE": 291.5693, "ARG_OF_PERICENTER": 68.5761, "MEAN_ANOMALY": 59.0624, "EPHEMERIS_TYPE": 0, "CLASSIFICATION_TYPE": "U", "NORAD_CAT_ID": 33960, "ELEMENT_SET_NO": 999, "REV_AT_EPOCH": 88802, "BSTAR": 0.003761271, "MEAN_MOTION_DOT": 0.0003209, "MEAN_MOTION_DDOT": 0}, "tle": {"line1": "1 33960U 97051BV  25342.37936534  .00032090  00000+0  37613-2 0  9994", "line2": "2 33960  86.2539 291.5693 0007303  68.5761  59.0624 14.84831157888021"}}, "geometry": {"type": "Point", "coordinates": [-67.98667908316897, 10.380602048830815]}}, {"type": "Feature", "properties": {"norad_id": 33966, "name": "IRIDIUM 33 DEB", "group": "iridium-33-debris", "lat": 77.45744259196749, "lon": -148.7978701865928, "alt_km": 720.6668841326918, "timestamp": "2025-12-08T21:31:05.051591+00:00", "meta": {"OBJECT_NAME": "IRIDIUM 33 DEB", "OBJECT_ID": "1997-051CB", "EPOCH": "2025-12-08T14:59:55.463136", "MEAN_MOTION": 14.49568872, "ECCENTRICITY": 0.00069397, "INCLINATION": 86.3923, "RA_OF_ASC_NODE": 47.7931, "ARG_OF_PERICENTER": 202.2262, "MEAN_ANOMALY": 283.2245, "EPHEMERIS_TYPE": 0, "CLASSIFICATION_TYPE": "U", "NORAD_CAT_ID": 33966, "ELEMENT_SET_NO": 999, "REV_AT_EPOCH": 88382, "BSTAR": 0.00095958152, "MEAN_MOTION_DOT": 3.701e-05, "MEAN_MOTION_DDOT": 0}, "tle": {"line1": "1 33966U 97051CB  25342.62494749  .00003701  00000+0  95958-3 0  9999", "line2": "2 33966  86.3923  47.7931 0006939 202.2262 283.2245 14.49568872883823"}}, "geometry": {"type": "Point", "coordinates": [-148.7978701865928, 77.45744259196749]}}, {"type": "Feature", "properties": {"norad_id": 34071, "name": "IRIDIUM 33 DEB", "group": "iridium-33-debris", "lat": 9.518996596979475, "lon": -161.1153856503358, "alt_km": 724.9998573358889, "timestamp": "2025-12-08T21:31:05.051602+00:00", "meta": {"OBJECT_NAME": "IRIDIUM 33 DEB", "OBJECT_ID": "1997-051CE", "EPOCH": "2025-12-08T14:06:28.761696", "MEAN_MOTION": 14.49437416, "ECCENTRICITY": 0.00097991, "INCLINATION": 86.3455, "RA_OF_ASC_NODE": 19.6328, "ARG_OF_PERICENTER": 118.7219, "MEAN_ANOMALY": 241.4971, "EPHEMERIS_TYPE": 0, "CLASSIFICATION_TYPE": "U", "NORAD_CAT_ID": 34071, "ELEMENT_SET_NO": 999, "REV_AT_EPOCH": 88274, "BSTAR": 0.00098839003, "MEAN_MOTION_DOT": 3.803e-05, "MEAN_MOTION_DDOT": 0}, "tle": {"line1": "1 34071U 97051CE  25342.58783289  .00003803  00000+0  98839-3 0  9996", "line2": "2 34071  86.3455  19.6328 0009799 118.7219 241.4971 14.49437416882740"}}, "geometry": {"type": "Point", "coordinates": [-161.1153856503358, 9.518996596979475]}}]}